[{"OBJECT_NAME":"STARLINK-32006","OBJECT_ID":"2024-111P","EPOCH":"2026-03-09T07:10:18.599232","MEAN_MOTION":15.30191387,"ECCENTRICITY":0.00013013,"INCLINATION":53.1608,"RA_OF_ASC_NODE":77.4414,"ARG_OF_PERICENTER":84.3268,"MEAN_ANOMALY":275.7881,"EPHEMERIS_TYPE":0,"CLASSIFICATION_TYPE":"U","NORAD_CAT_ID":60029,"ELEMENT_SET_NO":999,"REV_AT_EPOCH":9897,"BSTAR":2.9737141e-5,"MEAN_MOTION_DOT":5.21e-6,"MEAN_MOTION_DDOT":0},{"OBJECT_NAME":"FENGYUN 1C DEB","OBJECT_ID":"1999-025BRA","EPOCH":"2026-03-07T21:38:03.570144","MEAN_MOTION":15.14550758,"ECCENTRICITY":0.01045185,"INCLINATION":98.8762,"RA_OF_ASC_NODE":52.6466,"ARG_OF_PERICENTER":91.2586,"MEAN_ANOMALY":270.0618,"EPHEMERIS_TYPE":0,"CLASSIFICATION_TYPE":"U","NORAD_CAT_ID":31346,"ELEMENT_SET_NO":999,"REV_AT_EPOCH":773,"BSTAR":0.0014203897,"MEAN_MOTION_DOT":0.00030047,"MEAN_MOTION_DDOT":0}]
